$$SOE
2460154.500000000, A.D. 2023-Jul-29 00:00:00.0000, -1.872192072635272E+08, -2.627735509504699E+08, 1.491389104022615E+07,
2460161.500000000, A.D. 2023-Aug-05 00:00:00.0000, -1.778037262428132E+08, -2.711010041812879E+08, 1.454068210374764E+07,
2460168.500000000, A.D. 2023-Aug-12 00:00:00.0000, -1.681357626190079E+08, -2.790434995091297E+08, 1.414682375779760E+07,
2460175.500000000, A.D. 2023-Aug-19 00:00:00.0000, -1.582324530004122E+08, -2.865954095232501E+08, 1.373316191800776E+07,
2460182.500000000, A.D. 2023-Aug-26 00:00:00.0000, -1.481108350711331E+08, -2.937519101399620E+08, 1.330055108811371E+07,
2460189.500000000, A.D. 2023-Sep-02 00:00:00.0000, -1.377878116926320E+08, -3.005089500598829E+08, 1.284985184781192E+07,
2460196.500000000, A.D. 2023-Sep-09 00:00:00.0000, -1.272801184777725E+08, -3.068632194593777E+08, 1.238192850594577E+07,
2460203.500000000, A.D. 2023-Sep-16 00:00:00.0000, -1.166042945498449E+08, -3.128121182819698E+08, 1.189764689787859E+07,
2460210.500000000, A.D. 2023-Sep-23 00:00:00.0000, -1.057766559314740E+08, -3.183537241206034E+08, 1.139787230962965E+07,
2460217.500000000, A.D. 2023-Sep-30 00:00:00.0000, -9.481327174954072E+07, -3.234867587478349E+08, 1.088346765319534E+07,
2460224.500000000, A.D. 2023-Oct-07 00:00:00.0000, -8.372994544483854E+07, -3.282105540545404E+08, 1.035529205928007E+07,
2460231.500000000, A.D. 2023-Oct-14 00:00:00.0000, -7.254219977301005E+07, -3.325250209016861E+08, 9.814199514992848E+06,
2460238.500000000, A.D. 2023-Oct-21 00:00:00.0000, -6.126526219163030E+07, -3.364306194516054E+08, 9.261037374776140E+06,
2460245.500000000, A.D. 2023-Oct-28 00:00:00.0000, -4.991405188152289E+07, -3.399283288632149E+08, 8.696645053189695E+06,
2460252.500000000, A.D. 2023-Nov-04 00:00:00.0000, -3.850316947669102E+07, -3.430196172410986E+08, 8.121852944078073E+06,
2460259.500000000, A.D. 2023-Nov-11 00:00:00.0000, -2.704688915203960E+07, -3.457064125358454E+08, 7.537481493290871E+06,
2460266.500000000, A.D. 2023-Nov-18 00:00:00.0000, -1.555915268007204E+07, -3.479910745373390E+08, 6.944340391734257E+06,
2460273.500000000, A.D. 2023-Nov-25 00:00:00.0000, -4.053565218689765E+06, -3.498763679981692E+08, 6.343227875826433E+06,
2460280.500000000, A.D. 2023-Dec-02 00:00:00.0000, 7.456607357729980E+06, -3.513654369442838E+08, 5.734930123885036E+06,
2460287.500000000, A.D. 2023-Dec-09 00:00:00.0000, 1.895843981348763E+07, -3.524617802660784E+08, 5.120220728994355E+06,
2460294.500000000, A.D. 2023-Dec-16 00:00:00.0000, 3.043934802295316E+07, -3.531692285996109E+08, 4.499860215842858E+06,
2460301.500000000, A.D. 2023-Dec-23 00:00:00.0000, 4.188708904047067E+07, -3.534919218208828E+08, 3.874595618655324E+06,
2460308.500000000, A.D. 2023-Dec-30 00:00:00.0000, 5.328975955412437E+07, -3.534342861034802E+08, 3.245160321825296E+06,
2460315.500000000, A.D. 2024-Jan-06 00:00:00.0000, 6.463579106887305E+07, -3.530010128896942E+08, 2.612274125827268E+06,
2460322.500000000, A.D. 2024-Jan-13 00:00:00.0000, 7.591394510333446E+07, -3.521970415654432E+08, 1.976643092883930E+06,
2460329.500000000, A.D. 2024-Jan-20 00:00:00.0000, 8.711330972741699E+07, -3.510275427356912E+08, 1.338959306042776E+06,
2460336.500000000, A.D. 2024-Jan-27 00:00:00.0000, 9.822329550663809E+07, -3.494979014251783E+08, 6.999007753389627E+05,
2460343.500000000, A.D. 2024-Feb-03 00:00:00.0000, 1.092336305115415E+08, -3.476137011251871E+08, 6.013144739545882E+04,
2460350.500000000, A.D. 2024-Feb-10 00:00:00.0000, 1.201343547492307E+08, -3.453807089465472E+08, -5.796987358527631E+05,
2460357.500000000, A.D. 2024-Feb-17 00:00:00.0000, 1.309158142279736E+08, -3.428048618379661E+08, -1.218953746103078E+06,
2460364.500000000, A.D. 2024-Feb-24 00:00:00.0000, 1.415686547555647E+08, -3.398922538196192E+08, -1.857011351825446E+06,
2460371.500000000, A.D. 2024-Mar-02 00:00:00.0000, 1.520838155588032E+08, -3.366491242268084E+08, -2.493262985119984E+06,
2460378.500000000, A.D. 2024-Mar-09 00:00:00.0000, 1.624525229150588E+08, -3.330818469872321E+08, -3.127113613922328E+06,
2460385.500000000, A.D. 2024-Mar-16 00:00:00.0000, 1.726662842380300E+08, -3.291969206941637E+08, -3.757981643001303E+06,
2460392.500000000, A.D. 2024-Mar-23 00:00:00.0000, 1.827168825571362E+08, -3.250009583248814E+08, -4.385298746729195E+06,
2460399.500000000, A.D. 2024-Mar-30 00:00:00.0000, 1.925963691905250E+08, -3.205006765897827E+08, -5.008509433309481E+06,
2460406.500000000, A.D. 2024-Apr-06 00:00:00.0000, 2.022970549069753E+08, -3.157028882409055E+08, -5.627070642042533E+06,
2460413.500000000, A.D. 2024-Apr-13 00:00:00.0000, 2.118115031640444E+08, -3.106144964699374E+08, -6.240451633393124E+06,
2460420.500000000, A.D. 2024-Apr-20 00:00:00.0000, 2.211325245005857E+08, -3.052424886900575E+08, -6.848133867653251E+06,
2460427.500000000, A.D. 2024-Apr-27 00:00:00.0000, 2.302531705902293E+08, -2.995939302331809E+08, -7.449610780610710E+06,
2460434.500000000, A.D. 2024-May-04 00:00:00.0000, 2.391667280633656E+08, -2.936759586337497E+08, -8.044387523403108E+06,
2460441.500000000, A.D. 2024-May-11 00:00:00.0000, 2.478667123536443E+08, -2.874957785679449E+08, -8.631980698263079E+06,
2460448.500000000, A.D. 2024-May-18 00:00:00.0000, 2.563468616669785E+08, -2.810606573946660E+08, -9.211918097270578E+06,
2460455.500000000, A.D. 2024-May-25 00:00:00.0000, 2.646011311116137E+08, -2.743779212745802E+08, -9.783738448189527E+06,
2460462.500000000, A.D. 2024-Jun-01 00:00:00.0000, 2.726236870607896E+08, -2.674549518943392E+08, -1.034699117871088E+07,
2460469.500000000, A.D. 2024-Jun-08 00:00:00.0000, 2.804089020055766E+08, -2.602991837891057E+08, -1.090123622454254E+07,
2460476.500000000, A.D. 2024-Jun-15 00:00:00.0000, 2.879513503096149E+08, -2.529181016914918E+08, -1.144604387408835E+07,
2460483.500000000, A.D. 2024-Jun-22 00:00:00.0000, 2.952458038716544E+08, -2.453192367094088E+08, -1.198099446192917E+07,
2460490.500000000, A.D. 2024-Jun-29 00:00:00.0000, 3.022872255810822E+08, -2.375101631321954E+08, -1.250567786589138E+07,
2460497.500000000, A.D. 2024-Jul-06 00:00:00.0000, 3.090707632155070E+08, -2.294984983121151E+08, -1.301969325297244E+07,
2460504.500000000, A.D. 2024-Jul-13 00:00:00.0000, 3.155917457354046E+08, -2.212919027737437E+08, -1.352264902274136E+07,
2460511.500000000, A.D. 2024-Jul-20 00:00:00.0000, 3.218456799969448E+08, -2.128980793826387E+08, -1.401416267275122E+07,
2460518.500000000, A.D. 2024-Jul-27 00:00:00.0000, 3.278282472325485E+08, -2.043247725146106E+08, -1.449386060481100E+07,
2460525.500000000, A.D. 2024-Aug-03 00:00:00.0000, 3.335352995764834E+08, -1.955797675830837E+08, -1.496137792846256E+07,
2460532.500000000, A.D. 2024-Aug-10 00:00:00.0000, 3.389628568048943E+08, -1.866708909122790E+08, -1.541635827791888E+07,
2460539.500000000, A.D. 2024-Aug-17 00:00:00.0000, 3.441071033404285E+08, -1.776060099185571E+08, -1.585845364567845E+07,
2460546.500000000, A.D. 2024-Aug-24 00:00:00.0000, 3.489643855509354E+08, -1.683930336068206E+08, -1.628732423778345E+07,
2460553.500000000, A.D. 2024-Aug-31 00:00:00.0000, 3.535312094577507E+08, -1.590399134277042E+08, -1.670263836689367E+07,
2460560.500000000, A.D. 2024-Sep-07 00:00:00.0000, 3.578042392184587E+08, -1.495546443513913E+08, -1.710407240682001E+07,
2460567.500000000, A.D. 2024-Sep-14 00:00:00.0000, 3.617802964727107E+08, -1.399452651436270E+08, -1.749131073524852E+07,
2460574.500000000, A.D. 2024-Sep-21 00:00:00.0000, 3.654563585301974E+08, -1.302198574169507E+08, -1.786404544528702E+07,
2460581.500000000, A.D. 2024-Sep-28 00:00:00.0000, 3.688295549189050E+08, -1.203865466736023E+08, -1.822197604572819E+07,
2460588.500000000, A.D. 2024-Oct-05 00:00:00.0000, 3.718971659656752E+08, -1.104535053251625E+08, -1.856480948737982E+07,
2460595.500000000, A.D. 2024-Oct-12 00:00:00.0000, 3.746566230529408E+08, -1.004289546951912E+08, -1.889226023955648E+07,
2460602.500000000, A.D. 2024-Oct-19 00:00:00.0000, 3.771055088067776E+08, -9.032116626392244E+07, -1.920405027889458E+07,
2460609.500000000, A.D. 2024-Oct-26 00:00:00.0000, 3.792415571893681E+08, -8.013846294511336E+07, -1.949990905358407E+07,
2460616.500000000, A.D. 2024-Nov-02 00:00:00.0000, 3.810626537583911E+08, -6.988922053170845E+07, -1.977957345925014E+07,
2460623.500000000, A.D. 2024-Nov-09 00:00:00.0000, 3.825668361953983E+08, -5.958186927771439E+07, -2.004278783412245E+07,
2460630.500000000, A.D. 2024-Nov-16 00:00:00.0000, 3.837522951347252E+08, -4.922489560450581E+07, -2.028930397630774E+07,
2460637.500000000, A.D. 2024-Nov-23 00:00:00.0000, 3.846173753446101E+08, -3.882684397073904E+07, -2.051888119201145E+07,
2460644.500000000, A.D. 2024-Nov-30 00:00:00.0000, 3.851605774705651E+08, -2.839631893792847E+07, -2.073128639772641E+07,
2460651.500000000, A.D. 2024-Dec-07 00:00:00.0000, 3.853805607582427E+08, -1.794198699719728E+07, -2.092629428068268E+07,
2460658.500000000, A.D. 2024-Dec-14 00:00:00.0000, 3.852761460678390E+08, -7.472576913121907E+06, -2.110368735425358E+07,
2460665.500000000, A.D. 2024-Dec-21 00:00:00.0000, 3.848463168726589E+08, 3.003120194745806E+06, -2.126325579729989E+07,
2460672.500000000, A.D. 2024-Dec-28 00:00:00.0000, 3.840902202272720E+08, 1.347624808031423E+07, -2.140479750174993E+07,
2460679.500000000, A.D. 2025-Jan-04 00:00:00.0000, 3.830071703111545E+08, 2.393788230043316E+07, -2.152811837318388E+07,
2460686.500000000, A.D. 2025-Jan-11 00:00:00.0000, 3.815966527356181E+08, 3.437902852121204E+07, -2.163303258224750E+07,
2460693.500000000, A.D. 2025-Jan-18 00:00:00.0000, 3.798583287060043E+08, 4.479062129839408E+07, -2.171936275840027E+07,
2460700.500000000, A.D. 2025-Jan-25 00:00:00.0000, 3.777920392899699E+08, 5.516352287464920E+07, -2.178694018761285E+07,
2460707.500000000, A.D. 2025-Feb-01 00:00:00.0000, 3.753978099879332E+08, 6.548852198316375E+07, -2.183560503432705E+07,
2460714.500000000, A.D. 2025-Feb-08 00:00:00.0000, 3.726758556707520E+08, 7.575633269868372E+07, -2.186520659191971E+07,
2460721.500000000, A.D. 2025-Feb-15 00:00:00.0000, 3.696265859205984E+08, 8.595759333926556E+07, -2.187560356650807E+07,
$$EOE